[
    {
        "Altitude(m)": 702793.1716860947,
        "Argument of Periapsis(deg)": 0.009112096949301655,
        "Eccentricity": 0.0,
        "Inclination(deg)": 45.0,
        "Latitude(deg)": 16.407934214151354,
        "Longitude(deg)": -82.64374252722072,
        "Mean Anomaly(deg)": -203.50072668201537,
        "RAAN(deg)": 214.99139844683347,
        "Satellite Name": "Constellation 1 955",
        "Satellite Number": 955,
        "Semi-Major Axis(m)": 7083131.272910544,
        "Time(s)": 152
    },
    {
        "Altitude(m)": 702791.2299893781,
        "Argument of Periapsis(deg)": 0.009172044955547059,
        "Eccentricity": 0.0,
        "Inclination(deg)": 45.0,
        "Latitude(deg)": 16.366625004823998,
        "Longitude(deg)": -82.60129519396479,
        "Mean Anomaly(deg)": -203.44002554176544,
        "RAAN(deg)": 214.99134185766786,
        "Satellite Name": "Constellation 1 955",
        "Satellite Number": 955,
        "Semi-Major Axis(m)": 7083131.272910544,
        "Time(s)": 153
    },
    {
        "Altitude(m)": 702789.3047865183,
        "Argument of Periapsis(deg)": 0.009231992961792466,
        "Eccentricity": 0.0,
        "Inclination(deg)": 45.0,
        "Latitude(deg)": 16.325305375699173,
        "Longitude(deg)": -82.55886746894711,
        "Mean Anomaly(deg)": -203.37932440151556,
        "RAAN(deg)": 214.9912852685023,
        "Satellite Name": "Constellation 1 955",
        "Satellite Number": 955,
        "Semi-Major Axis(m)": 7083131.272910544,
        "Time(s)": 154
    },
    {
        "Altitude(m)": 702787.3961036984,
        "Argument of Periapsis(deg)": 0.009291940968037872,
        "Eccentricity": 0.0,
        "Inclination(deg)": 45.0,
        "Latitude(deg)": 16.28397535884891,
        "Longitude(deg)": -82.5164592966944,
        "Mean Anomaly(deg)": -203.31862326126563,
        "RAAN(deg)": 214.99122867933673,
        "Satellite Name": "Constellation 1 955",
        "Satellite Number": 955,
        "Semi-Major Axis(m)": 7083131.272910544,
        "Time(s)": 155
    },
    {
        "Altitude(m)": 702785.503967056,
        "Argument of Periapsis(deg)": 0.009351888974283276,
        "Eccentricity": 0.0,
        "Inclination(deg)": 45.0,
        "Latitude(deg)": 16.242634986306843,
        "Longitude(deg)": -82.47407078986139,
        "Mean Anomaly(deg)": -203.25792212101575,
        "RAAN(deg)": 214.99117209017118,
        "Satellite Name": "Constellation 1 955",
        "Satellite Number": 955,
        "Semi-Major Axis(m)": 7083131.272910544,
        "Time(s)": 156
    },
    {
        "Altitude(m)": 702783.6284026501,
        "Argument of Periapsis(deg)": 0.00941183698052868,
        "Eccentricity": 0.0,
        "Inclination(deg)": 45.0,
        "Latitude(deg)": 16.20128429006847,
        "Longitude(deg)": -82.43170155684304,
        "Mean Anomaly(deg)": -203.19722098076585,
        "RAAN(deg)": 214.99111550100562,
        "Satellite Name": "Constellation 1 955",
        "Satellite Number": 955,
        "Semi-Major Axis(m)": 7083131.272910544,
        "Time(s)": 157
    },
    {
        "Altitude(m)": 702781.7694364703,
        "Argument of Periapsis(deg)": 0.009471784986774088,
        "Eccentricity": 0.0,
        "Inclination(deg)": 45.0,
        "Latitude(deg)": 16.159923302091105,
        "Longitude(deg)": -82.38935171035614,
        "Mean Anomaly(deg)": -203.13651984051592,
        "RAAN(deg)": 214.99105891184,
        "Satellite Name": "Constellation 1 955",
        "Satellite Number": 955,
        "Semi-Major Axis(m)": 7083131.272910544,
        "Time(s)": 158
    },
    {
        "Altitude(m)": 702779.9270944485,
        "Argument of Periapsis(deg)": 0.009531732993019492,
        "Eccentricity": 0.0,
        "Inclination(deg)": 45.0,
        "Latitude(deg)": 16.11855205429399,
        "Longitude(deg)": -82.34702119505152,
        "Mean Anomaly(deg)": -203.07581870026607,
        "RAAN(deg)": 214.99100232267446,
        "Satellite Name": "Constellation 1 955",
        "Satellite Number": 955,
        "Semi-Major Axis(m)": 7083131.272910544,
        "Time(s)": 159
    },
    {
        "Altitude(m)": 702778.1014024415,
        "Argument of Periapsis(deg)": 0.009591680999264898,
        "Eccentricity": 0.0,
        "Inclination(deg)": 45.0,
        "Latitude(deg)": 16.07717057855857,
        "Longitude(deg)": -82.30470995561109,
        "Mean Anomaly(deg)": -203.01511756001617,
        "RAAN(deg)": 214.99094573350888,
        "Satellite Name": "Constellation 1 955",
        "Satellite Number": 955,
        "Semi-Major Axis(m)": 7083131.272910544,
        "Time(s)": 160
    },
    {
        "Altitude(m)": 702776.2923862435,
        "Argument of Periapsis(deg)": 0.009651629005510304,
        "Eccentricity": 0.0,
        "Inclination(deg)": 45.0,
        "Latitude(deg)": 16.035778906728527,
        "Longitude(deg)": -82.2624179367477,
        "Mean Anomaly(deg)": -202.9544164197663,
        "RAAN(deg)": 214.99088914434333,
        "Satellite Name": "Constellation 1 955",
        "Satellite Number": 955,
        "Semi-Major Axis(m)": 7083131.272910544,
        "Time(s)": 161
    },
    {
        "Altitude(m)": 702774.5000715767,
        "Argument of Periapsis(deg)": 0.00971157701175571,
        "Eccentricity": 0.0,
        "Inclination(deg)": 45.0,
        "Latitude(deg)": 15.994377070609808,
        "Longitude(deg)": -82.22014508320527,
        "Mean Anomaly(deg)": -202.89371527951639,
        "RAAN(deg)": 214.99083255517772,
        "Satellite Name": "Constellation 1 955",
        "Satellite Number": 955,
        "Semi-Major Axis(m)": 7083131.272910544,
        "Time(s)": 162
    },
    {
        "Altitude(m)": 702772.7244841004,
        "Argument of Periapsis(deg)": 0.009771525018001118,
        "Eccentricity": 0.0,
        "Inclination(deg)": 45.0,
        "Latitude(deg)": 15.95296510197073,
        "Longitude(deg)": -82.17789150785539,
        "Mean Anomaly(deg)": -202.83301413926642,
        "RAAN(deg)": 214.99077596601217,
        "Satellite Name": "Constellation 1 955",
        "Satellite Number": 955,
        "Semi-Major Axis(m)": 7083131.272910544,
        "Time(s)": 163
    },
    {
        "Altitude(m)": 702770.9656494086,
        "Argument of Periapsis(deg)": 0.00983147302424652,
        "Eccentricity": 0.0,
        "Inclination(deg)": 45.0,
        "Latitude(deg)": 15.911543032542443,
        "Longitude(deg)": -82.13565681931031,
        "Mean Anomaly(deg)": -202.77231299901658,
        "RAAN(deg)": 214.99071937684658,
        "Satellite Name": "Constellation 1 955",
        "Satellite Number": 955,
        "Semi-Major Axis(m)": 7083131.272910544,
        "Time(s)": 164
    },
    {
        "Altitude(m)": 702769.2235930155,
        "Argument of Periapsis(deg)": 0.009891421030491928,
        "Eccentricity": 0.0,
        "Inclination(deg)": 45.0,
        "Latitude(deg)": 15.87011089401843,
        "Longitude(deg)": -82.09344113050348,
        "Mean Anomaly(deg)": -202.71161185876664,
        "RAAN(deg)": 214.99066278768103,
        "Satellite Name": "Constellation 1 955",
        "Satellite Number": 955,
        "Semi-Major Axis(m)": 7083131.272910544,
        "Time(s)": 165
    },
    {
        "Altitude(m)": 702767.4983403743,
        "Argument of Periapsis(deg)": 0.009951369036737332,
        "Eccentricity": 0.0,
        "Inclination(deg)": 45.0,
        "Latitude(deg)": 15.828668718055146,
        "Longitude(deg)": -82.05124438630266,
        "Mean Anomaly(deg)": -202.6509107185168,
        "RAAN(deg)": 214.99060619851548,
        "Satellite Name": "Constellation 1 955",
        "Satellite Number": 955,
        "Semi-Major Axis(m)": 7083131.272910544,
        "Time(s)": 166
    },
    {
        "Altitude(m)": 702765.7899168769,
        "Argument of Periapsis(deg)": 0.010011317042982738,
        "Eccentricity": 0.0,
        "Inclination(deg)": 45.0,
        "Latitude(deg)": 15.787216536271917,
        "Longitude(deg)": -82.00906653160654,
        "Mean Anomaly(deg)": -202.5902095782669,
        "RAAN(deg)": 214.99054960934987,
        "Satellite Name": "Constellation 1 955",
        "Satellite Number": 955,
        "Semi-Major Axis(m)": 7083131.272910544,
        "Time(s)": 167
    },
    {
        "Altitude(m)": 702764.0983478305,
        "Argument of Periapsis(deg)": 0.010071265049228144,
        "Eccentricity": 0.0,
        "Inclination(deg)": 45.0,
        "Latitude(deg)": 15.74575438025104,
        "Longitude(deg)": -81.9669075113445,
        "Mean Anomaly(deg)": -202.52950843801696,
        "RAAN(deg)": 214.99049302018432,
        "Satellite Name": "Constellation 1 955",
        "Satellite Number": 955,
        "Semi-Major Axis(m)": 7083131.272910544,
        "Time(s)": 168
    },
    {
        "Altitude(m)": 702762.4236584924,
        "Argument of Periapsis(deg)": 0.01013121305547355,
        "Eccentricity": 0.0,
        "Inclination(deg)": 45.0,
        "Latitude(deg)": 15.704282281537983,
        "Longitude(deg)": -81.9247672704771,
        "Mean Anomaly(deg)": -202.46880729776706,
        "RAAN(deg)": 214.99043643101876,
        "Satellite Name": "Constellation 1 955",
        "Satellite Number": 955,
        "Semi-Major Axis(m)": 7083131.272910544,
        "Time(s)": 169
    },
    {
        "Altitude(m)": 702760.7658740388,
        "Argument of Periapsis(deg)": 0.010191161061718957,
        "Eccentricity": 0.0,
        "Inclination(deg)": 45.0,
        "Latitude(deg)": 15.662800271641318,
        "Longitude(deg)": -81.88264575399553,
        "Mean Anomaly(deg)": -202.40810615751718,
        "RAAN(deg)": 214.99037984185318,
        "Satellite Name": "Constellation 1 955",
        "Satellite Number": 955,
        "Semi-Major Axis(m)": 7083131.272910544,
        "Time(s)": 170
    }
]